CUBEBUG-2 (LO-74)       
1 39440U 13066AA  26165.85263433  .00004175  00000+0  38675-3 0  9998
2 39440  97.8904 114.8208 0058552  36.5594 323.9600 14.93744304676641
FUNCUBE-1 (AO-73)       
1 39444U 13066AE  26165.86898016  .00006690  00000+0  41591-3 0  9999
2 39444  97.8271 137.2664 0035429 209.1760 150.7489 15.09465367679313
UWE-3                   
1 39446U 13066AG  26165.80939091  .00004072  00000+0  35106-3 0  9991
2 39446  97.8691 121.8670 0047958 329.0544  30.7853 14.97007905677225
UNISAT-6                
1 40012U 14033C   26165.37667054  .00002974  00000+0  32186-3 0  9990
2 40012  97.7871 318.1381 0046325  78.3311 282.3100 14.88233320645742
DUCHIFAT-1              
1 40021U 14033M   26165.65491135  .00096402  00000+0  10079-2 0  9991
2 40021  98.0472 224.4598 0003201 116.2617 243.8969 15.64143507655354
QB50P1                  
1 40025U 14033R   26165.77742709  .00008055  00000+0  39690-3 0  9992
2 40025  98.0959 176.7542 0007630 224.7653 135.2964 15.18228731652663
LILACSAT-2              
1 40908U 15049K   26165.88577484  .00016572  00000+0  28296-3 0  9991
2 40908  97.4647 202.6397 0005394 256.1221 103.9431 15.51379523595392
FOX-1A (AO-85)          
1 40967U 15058D   26165.66956632  .00002284  00000+0  21146-3 0  9990
2 40967  64.7762 286.8077 0130289  57.5807 303.7830 14.90959259113195
CAS-2T & KS-1Q          
1 41847U 16066G   26165.47017350  .00001606  00000+0  23210-3 0  9993
2 41847  98.3821 241.2375 0342714 137.6929 225.1249 14.44686169504406
RADFXSAT (FOX-1B)       
1 43017U 17073E   26165.89282045  .00008137  00000+0  35586-3 0  9999
2 43017  97.4709  33.1549 0149905 337.2448  22.2183 15.12688328465048
DIWATA-2B               
1 43678U 18084H   26165.83579470  .00002835  00000+0  23024-3 0  9993
2 43678  98.1177   1.9424 0012338 177.7083 182.4199 15.00444092415860
ES'HAIL 2               
1 43700U 18090A   26165.83636058  .00000000  00000+0  00000+0 0  9999
2 43700   0.0256   7.5484 0001586 117.4904 104.9712  1.00269664 27651
FOX-1CLIFF (AO-95)      
1 43770U 18099N   26165.65258519  .00010710  00000+0  41050-3 0  9990
2 43770  97.4388 225.9077 0008247   7.1912 352.9444 15.26665093412837
ITASAT                  
1 43786U 18099AE  26165.71612205  .00005811  00000+0  28016-3 0  9993
2 43786  97.4031 217.2768 0012365   9.0773 351.0683 15.19030078412535
JY1SAT (JO-97)          
1 43803U 18099AX  26165.15960116  .00016674  00000+0  51563-3 0  9990
2 43803  97.4134 227.9830 0004214 277.2169  82.8595 15.33568110413169
UWE-4                   
1 43880U 18111E   26165.30258735  .00032250  00000+0  66149-3 0  9998
2 43880  97.5859  93.5612 0006031 355.2213   4.8977 15.45969448410336
TIANYAN 01              
1 44881U 19093C   26165.82343443  .00001188  00000+0  14006-3 0  9999
2 44881  97.7537 238.1129 0015070  94.1051 266.1887 14.86516706351061
RS-44 & BREEZE-KM R/B   
1 44909U 19096E   26165.73793111  .00000015  00000+0  11257-4 0  9998
2 44909  82.5218 341.3328 0218072 149.8762 211.5093 12.79748816302037
SALSAT                  
1 46495U 20068K   26165.52910375  .00006973  00000+0  24454-3 0  9992
2 46495  97.8843 168.4319 0008235 319.4661  40.5964 15.29765944314951
XW-3 (CAS-9)            
1 50466U 21131B   26165.83319605  .00000507  00000+0  17008-3 0  9994
2 50466  98.4983 258.2354 0005348 101.8886 258.2903 14.41355659234770
GREENCUBE (IO-117)      
1 53109U 22080E   26164.29338770 -.00000003  00000+0  00000+0 0  9990
2 53109  70.1444 299.5995 0008910 290.4576  69.5127  6.42583230 91811
UMKA 1 (RS40S)          
1 57172U 23091G   26165.79103736  .00006087  00000+0  27859-3 0  9997
2 57172  97.5054 224.4972 0014164 125.1257 235.1308 15.20793943163648
CUBESX-HSE 3 (RS42S)    
1 57178U 23091N   26165.82121593  .00012322  00000+0  41085-3 0  9994
2 57178  97.5098 231.3783 0012080 101.9731 258.2864 15.31163398164060
MONITOR-3 (RS58S)       
1 57180U 23091Q   26165.84049374  .00009859  00000+0  36489-3 0  9998
2 57180  97.5090 229.2690 0013135 107.9985 252.2687 15.27801807163938
MONITOR-4 (RS57S)       
1 57182U 23091S   26165.81968088  .00009564  00000+0  35317-3 0  9991
2 57182  97.5083 229.2192 0013109 108.3747 251.8919 15.27886529163938
MONITOR-2 (RS39S)       
1 57184U 23091U   26165.80928726  .00004442  00000+0  21583-3 0  9997
2 57184  97.5076 224.1074 0012659 118.2703 241.9810 15.18891187163594
SVYATOBOR 1 (RS60S)     
1 57187U 23091X   26165.83074584  .00008342  00000+0  32109-3 0  9996
2 57187  97.5095 229.6345 0010906 101.4406 258.8057 15.26580849163955
VIZARD-METEO (RS38S)    
1 57189U 23091Z   26165.86749095  .00016199  00000+0  46411-3 0  9997
2 57189  97.5098 235.3058 0008401  84.6116 275.6085 15.35962719164333
POLYTECH-UNIVERSE 3 (R*)
1 57191U 23091AB  26165.83680498  .00005089  00000+0  24496-3 0  9993
2 57191  97.5052 223.6393 0016752 134.2177 226.0437 15.19093434163594
UTMN 2 (RS27S)          
1 57203U 23091AP  26165.84009606  .00012017  00000+0  39079-3 0  9996
2 57203  97.5094 233.0283 0009384  90.8020 269.4296 15.32002880164184
